NORAD_CAT_ID,OBJECT_NAME,OBJECT_TYPE,EPOCH,MEAN_MOTION,ECCENTRICITY,INCLINATION,RA_OF_ASC_NODE,ARG_OF_PERICENTER,MEAN_ANOMALY,BSTAR,MEAN_MOTION_DOT,MEAN_MOTION_DDOT,TLE_LINE0,TLE_LINE1,TLE_LINE2,SEMIMAJOR_AXIS,PERIOD,APOGEE,PERIGEE,DECAYED
56789.0,STARLINK-6325,PAYLOAD,2024-08-20 13:05:50,14.98334096,0.0002684,69.9994,291.9043,262.9889,97.0964,6.485e-05,6.81e-06,0.0,0 STARLINK-6325,1 56789U 23078Y   24233.54572623  .00000681  00000-0  64850-4 0  9995,2 56789  69.9994 291.9043 0002684 262.9889  97.0964 14.98334096 69125,6950.18,96.107,573.911,570.18,0.0
56789.0,STARLINK-6325,PAYLOAD,2024-08-21 13:07:50,14.98328048,0.0002908,69.9986,289.3786,266.2097,93.873,0.00043462,5.096e-05,0.0,0 STARLINK-6325,1 56789U 23078Y   24234.54711727  .00005096  00000-0  43462-3 0  9996,2 56789  69.9986 289.3786 0002908 266.2097  93.8730 14.98328048 69684,6950.199,96.107,574.085,570.043,0.0
56789.0,STARLINK-6325,PAYLOAD,2024-08-21 21:08:32,14.9832958,0.0002113,70.0006,288.538,274.3661,85.7257,0.00012175,1.36e-05,0.0,0 STARLINK-6325,1 56789U 23078Y   24234.88092696  .00001360  00000-0  12175-3 0  9997,2 56789  70.0006 288.5380 0002113 274.3661  85.7257 14.98329580 69323,6950.194,96.107,573.528,570.591,0.0
